IRIDIUM 135             
1 43070U 17083A   26201.22184226 -.00000008  00000+0 -99502-5 0  9990
2 43070  86.3985 308.2074 0002110  94.7900 265.3537 14.34217578448887
IRIDIUM 138             
1 43071U 17083B   26201.24721166  .00000152  00000+0  47351-4 0  9995
2 43071  86.4000 307.8969 0002042  94.3379 265.8050 14.34217443448870
IRIDIUM 116             
1 43072U 17083C   26201.00619492  .00000100  00000+0  28566-4 0  9998
2 43072  86.3986 308.2829 0002496  97.7429 262.4050 14.34216896448873
IRIDIUM 130             
1 43073U 17083D   26201.25355593  .00000291  00000+0  96955-4 0  9993
2 43073  86.3993 308.4582 0002312 100.4245 259.7212 14.34218577448850
IRIDIUM 151             
1 43074U 17083E   26201.22818531  .00000152  00000+0  47037-4 0  9990
2 43074  86.3988 308.2486 0002270  94.9494 265.1961 14.34218019448877
IRIDIUM 134             
1 43075U 17083F   26201.26624036  .00000045  00000+0  89564-5 0  9993
2 43075  86.3988 308.2412 0002262  96.6503 263.4951 14.34217946448843
IRIDIUM 137             
1 43076U 17083G   26201.27892657  .00000010  00000+0 -34918-5 0  9997
2 43076  86.3988 308.3296 0002545  90.9193 269.2295 14.34217678448916
IRIDIUM 141             
1 43077U 17083H   26201.27258362  .00000047  00000+0  95914-5 0  9999
2 43077  86.3986 308.1609 0002147  94.0797 266.0644 14.34217277448912
IRIDIUM 153             
1 43078U 17083J   26201.15499319 -.00000008  00000+0 -10043-4 0  9994
2 43078  86.3955 276.6881 0002035  95.5104 264.6324 14.34217402450006
IRIDIUM 131             
1 43079U 17083K   26201.25989824 -.00000038  00000+0 -20582-4 0  9993
2 43079  86.3988 308.3543 0002109  93.7900 266.3537 14.34217289448844
IRIDIUM 144             
1 43249U 18030A   26200.95203050  .00000027  00000+0  26943-5 0  9995
2 43249  86.3954 276.7015 0002390  96.5398 263.6070 14.34217153434838
IRIDIUM 149             
1 43250U 18030B   26201.16767868 -.00000013  00000+0 -11657-4 0  9995
2 43250  86.3951 276.5778 0002140  93.8636 266.2805 14.34217391434883
IRIDIUM 157             
1 43251U 18030C   26201.18670590  .00000103  00000+0  29725-4 0  9996
2 43251  86.3953 276.6238 0002299  94.5055 265.6404 14.34218907434866
IRIDIUM 140             
1 43252U 18030D   26201.20573457  .00000141  00000+0  43109-4 0  9998
2 43252  86.3954 276.6285 0002268  95.7460 264.3994 14.34218910434920
IRIDIUM 145             
1 43253U 18030E   26200.91397576  .00000030  00000+0  36762-5 0  9997
2 43253  86.3952 276.7225 0002580  97.7671 262.3818 14.34217344434818
IRIDIUM 146             
1 43254U 18030F   26200.75541070  .00000002  00000+0 -64401-5 0  9991
2 43254  86.3953 276.8009 0002272  95.9475 264.1979 14.34217262434807
IRIDIUM 148             
1 43255U 18030G   26201.14230901  .00000129  00000+0  39107-4 0  9997
2 43255  86.3951 276.6822 0002335  94.4885 265.6578 14.34217829434895
IRIDIUM 142             
1 43256U 18030H   26201.18036456  .00000005  00000+0 -54162-5 0  9994
2 43256  86.3950 276.5546 0002309  96.0843 264.0616 14.34217102434867
IRIDIUM 150             
1 43257U 18030J   26201.14865093  .00000037  00000+0  62476-5 0  9999
2 43257  86.3955 276.6857 0002332  95.9228 264.2233 14.34217266434880
IRIDIUM 143             
1 43258U 18030K   26200.92031811  .00000058  00000+0  13754-4 0  9995
2 43258  86.3956 276.8747 0002342  95.8548 264.2915 14.34217665434786
IRIDIUM 161             
1 43478U 18047C   26201.10114761  .00000158  00000+0  40933-4 0  9994
2 43478  86.4456  74.7055 0002165  80.8407 279.3039 14.43277179429889
IRIDIUM 152             
1 43479U 18047D   26201.10234064 -.00000069  00000+0 -31882-4 0  9990
2 43479  86.3928  74.5659 0001971  84.0671 276.0750 14.34217427427202
IRIDIUM 147             
1 43480U 18047E   26201.10868342  .00000078  00000+0  20702-4 0  9991
2 43480  86.3934  74.5694 0002296  87.5251 272.6208 14.34217938427200
IRIDIUM 110             
1 43481U 18047F   26201.11502418  .00000160  00000+0  49974-4 0  9996
2 43481  86.3937  74.6596 0002037  78.0242 282.1182 14.34217082427199
IRIDIUM 162             
1 43482U 18047G   26201.09484352  .00000157  00000+0  40617-4 0  9991
2 43482  86.4455  74.5986 0002186  86.7241 273.4210 14.43279956429878
IRIDIUM 160             
1 43569U 18061A   26201.06086147  .00000093  00000+0  26041-4 0  9994
2 43569  86.3939  43.0457 0002209  86.9719 273.1729 14.34217872418084
IRIDIUM 166             
1 43570U 18061B   26201.08623242  .00000018  00000+0 -78015-6 0  9999
2 43570  86.3937  42.9851 0002279  89.4405 270.7052 14.34217706418119
IRIDIUM 158             
1 43571U 18061C   26201.26382510  .00000145  00000+0  44748-4 0  9994
2 43571  86.3937  42.9206 0002113  89.0737 271.0701 14.34217825418101
IRIDIUM 165             
1 43572U 18061D   26201.28919568  .00000109  00000+0  31762-4 0  9998
2 43572  86.3944  42.9569 0002244  91.1334 269.0119 14.34217576418130
IRIDIUM 155             
1 43573U 18061E   26201.11160237  .00000042  00000+0  79855-5 0  9994
2 43573  86.3936  42.8988 0002140  90.6933 269.4508 14.34217808418077
